[{"OBJECT_NAME":"STARLINK-35742","OBJECT_ID":"2025-247M","EPOCH":"2026-02-04T05:57:35.502912","MEAN_MOTION":15.30195638,"ECCENTRICITY":0.0001255,"INCLINATION":53.1618,"RA_OF_ASC_NODE":346.7756,"ARG_OF_PERICENTER":70.28,"MEAN_ANOMALY":289.8336,"EPHEMERIS_TYPE":0,"CLASSIFICATION_TYPE":"U","NORAD_CAT_ID":66276,"ELEMENT_SET_NO":999,"REV_AT_EPOCH":1596,"BSTAR":0.0010710807,"MEAN_MOTION_DOT":0.00031493,"MEAN_MOTION_DDOT":0},{"OBJECT_NAME":"STARLINK-35708","OBJECT_ID":"2025-247N","EPOCH":"2026-02-04T05:43:54.758208","MEAN_MOTION":15.30195921,"ECCENTRICITY":0.00011693,"INCLINATION":53.1618,"RA_OF_ASC_NODE":346.7167,"ARG_OF_PERICENTER":87.5019,"MEAN_ANOMALY":272.6115,"EPHEMERIS_TYPE":0,"CLASSIFICATION_TYPE":"U","NORAD_CAT_ID":66277,"ELEMENT_SET_NO":999,"REV_AT_EPOCH":1596,"BSTAR":0.00098571331,"MEAN_MOTION_DOT":0.00028945,"MEAN_MOTION_DDOT":0},{"OBJECT_NAME":"STARLINK-35713","OBJECT_ID":"2025-247P","EPOCH":"2026-02-04T06:36:56.021760","MEAN_MOTION":15.30200976,"ECCENTRICITY":8.34e-5,"INCLINATION":53.1609,"RA_OF_ASC_NODE":346.2341,"ARG_OF_PERICENTER":75.0175,"MEAN_ANOMALY":285.0918,"EPHEMERIS_TYPE":0,"CLASSIFICATION_TYPE":"U","NORAD_CAT_ID":66278,"ELEMENT_SET_NO":999,"REV_AT_EPOCH":1597,"BSTAR":0.0015844105,"MEAN_MOTION_DOT":0.00046864,"MEAN_MOTION_DDOT":0},{"OBJECT_NAME":"STARLINK-35724","OBJECT_ID":"2025-247Q","EPOCH":"2026-02-04T06:32:32.422272","MEAN_MOTION":15.30202646,"ECCENTRICITY":0.00011967,"INCLINATION":53.1608,"RA_OF_ASC_NODE":346.9264,"ARG_OF_PERICENTER":70.0365,"MEAN_ANOMALY":290.0765,"EPHEMERIS_TYPE":0,"CLASSIFICATION_TYPE":"U","NORAD_CAT_ID":66279,"ELEMENT_SET_NO":999,"REV_AT_EPOCH":1591,"BSTAR":0.0016664726,"MEAN_MOTION_DOT":0.00049329,"MEAN_MOTION_DDOT":0},{"OBJECT_NAME":"STARLINK-35726","OBJECT_ID":"2025-247R","EPOCH":"2026-02-04T06:49:05.634336","MEAN_MOTION":15.30202096,"ECCENTRICITY":0.000111,"INCLINATION":53.1608,"RA_OF_ASC_NODE":346.2868,"ARG_OF_PERICENTER":69.9648,"MEAN_ANOMALY":290.1472,"EPHEMERIS_TYPE":0,"CLASSIFICATION_TYPE":"U","NORAD_CAT_ID":66280,"ELEMENT_SET_NO":999,"REV_AT_EPOCH":1592,"BSTAR":0.0016165803,"MEAN_MOTION_DOT":0.00047831,"MEAN_MOTION_DDOT":0},{"OBJECT_NAME":"STARLINK-35727","OBJECT_ID":"2025-247S","EPOCH":"2026-02-04T06:26:27.649248","MEAN_MOTION":15.30202642,"ECCENTRICITY":0.00012014,"INCLINATION":53.1612,"RA_OF_ASC_NODE":346.8995,"ARG_OF_PERICENTER":87.8292,"MEAN_ANOMALY":272.2846,"EPHEMERIS_TYPE":0,"CLASSIFICATION_TYPE":"U","NORAD_CAT_ID":66281,"ELEMENT_SET_NO":999,"REV_AT_EPOCH":1591,"BSTAR":0.0013894775,"MEAN_MOTION_DOT":0.00041024,"MEAN_MOTION_DDOT":0},{"OBJECT_NAME":"STARLINK-35776","OBJECT_ID":"2025-247T","EPOCH":"2026-02-04T03:12:16.507296","MEAN_MOTION":15.30247039,"ECCENTRICITY":0.00013906,"INCLINATION":53.1626,"RA_OF_ASC_NODE":347.4796,"ARG_OF_PERICENTER":119.6107,"MEAN_ANOMALY":240.5033,"EPHEMERIS_TYPE":0,"CLASSIFICATION_TYPE":"U","NORAD_CAT_ID":66282,"ELEMENT_SET_NO":999,"REV_AT_EPOCH":1589,"BSTAR":0.0017801477,"MEAN_MOTION_DOT":0.00052816,"MEAN_MOTION_DDOT":0},{"OBJECT_NAME":"STARLINK-35774","OBJECT_ID":"2025-247U","EPOCH":"2026-02-04T06:14:18.223296","MEAN_MOTION":15.30206818,"ECCENTRICITY":0.0001044,"INCLINATION":53.162,"RA_OF_ASC_NODE":346.8485,"ARG_OF_PERICENTER":78.5672,"MEAN_ANOMALY":281.5446,"EPHEMERIS_TYPE":0,"CLASSIFICATION_TYPE":"U","NORAD_CAT_ID":66283,"ELEMENT_SET_NO":999,"REV_AT_EPOCH":1591,"BSTAR":0.0012125462,"MEAN_MOTION_DOT":0.00035733,"MEAN_MOTION_DDOT":0},{"OBJECT_NAME":"STARLINK-35830","OBJECT_ID":"2025-247V","EPOCH":"2026-02-04T06:08:13.580736","MEAN_MOTION":15.30199761,"ECCENTRICITY":0.00011931,"INCLINATION":53.1628,"RA_OF_ASC_NODE":346.8171,"ARG_OF_PERICENTER":94.0367,"MEAN_ANOMALY":266.077,"EPHEMERIS_TYPE":0,"CLASSIFICATION_TYPE":"U","NORAD_CAT_ID":66284,"ELEMENT_SET_NO":999,"REV_AT_EPOCH":1591,"BSTAR":0.0016629519,"MEAN_MOTION_DOT":0.00049219,"MEAN_MOTION_DDOT":0},{"OBJECT_NAME":"STARLINK-35819","OBJECT_ID":"2025-247W","EPOCH":"2026-02-04T06:00:37.450944","MEAN_MOTION":15.30202075,"ECCENTRICITY":0.00011215,"INCLINATION":53.1625,"RA_OF_ASC_NODE":346.7861,"ARG_OF_PERICENTER":121.601,"MEAN_ANOMALY":238.5101,"EPHEMERIS_TYPE":0,"CLASSIFICATION_TYPE":"U","NORAD_CAT_ID":66285,"ELEMENT_SET_NO":999,"REV_AT_EPOCH":1591,"BSTAR":0.0014003138,"MEAN_MOTION_DOT":0.00041348,"MEAN_MOTION_DDOT":0},{"OBJECT_NAME":"STARLINK-35783","OBJECT_ID":"2025-247X","EPOCH":"2026-02-04T05:54:33.069312","MEAN_MOTION":15.30197732,"ECCENTRICITY":0.00012228,"INCLINATION":53.1614,"RA_OF_ASC_NODE":346.7579,"ARG_OF_PERICENTER":74.6773,"MEAN_ANOMALY":285.4363,"EPHEMERIS_TYPE":0,"CLASSIFICATION_TYPE":"U","NORAD_CAT_ID":66286,"ELEMENT_SET_NO":999,"REV_AT_EPOCH":1591,"BSTAR":0.0011969762,"MEAN_MOTION_DOT":0.00035258,"MEAN_MOTION_DDOT":0},{"OBJECT_NAME":"STARLINK-34884","OBJECT_ID":"2025-247Y","EPOCH":"2026-02-04T05:46:57.164160","MEAN_MOTION":15.30196684,"ECCENTRICITY":0.00012021,"INCLINATION":53.1613,"RA_OF_ASC_NODE":346.726,"ARG_OF_PERICENTER":96.0457,"MEAN_ANOMALY":264.0681,"EPHEMERIS_TYPE":0,"CLASSIFICATION_TYPE":"U","NORAD_CAT_ID":66287,"ELEMENT_SET_NO":999,"REV_AT_EPOCH":1591,"BSTAR":0.0015193996,"MEAN_MOTION_DOT":0.00044909,"MEAN_MOTION_DDOT":0},{"OBJECT_NAME":"STARLINK-34896","OBJECT_ID":"2025-247Z","EPOCH":"2026-02-04T05:40:52.378176","MEAN_MOTION":15.30203818,"ECCENTRICITY":0.00012643,"INCLINATION":53.161,"RA_OF_ASC_NODE":346.6982,"ARG_OF_PERICENTER":59.4584,"MEAN_ANOMALY":300.6542,"EPHEMERIS_TYPE":0,"CLASSIFICATION_TYPE":"U","NORAD_CAT_ID":66288,"ELEMENT_SET_NO":999,"REV_AT_EPOCH":1591,"BSTAR":0.0012619691,"MEAN_MOTION_DOT":0.00037208,"MEAN_MOTION_DDOT":0},{"OBJECT_NAME":"STARLINK-35802","OBJECT_ID":"2025-247AA","EPOCH":"2026-02-04T05:33:16.325280","MEAN_MOTION":15.30197629,"ECCENTRICITY":0.00011539,"INCLINATION":53.1605,"RA_OF_ASC_NODE":346.6649,"ARG_OF_PERICENTER":86.377,"MEAN_ANOMALY":273.7362,"EPHEMERIS_TYPE":0,"CLASSIFICATION_TYPE":"U","NORAD_CAT_ID":66289,"ELEMENT_SET_NO":999,"REV_AT_EPOCH":1591,"BSTAR":0.00098502102,"MEAN_MOTION_DOT":0.00028926,"MEAN_MOTION_DDOT":0},{"OBJECT_NAME":"STARLINK-35799","OBJECT_ID":"2025-247AB","EPOCH":"2026-02-04T03:51:37.563552","MEAN_MOTION":15.30210158,"ECCENTRICITY":0.00016259,"INCLINATION":53.1603,"RA_OF_ASC_NODE":346.9378,"ARG_OF_PERICENTER":42.4066,"MEAN_ANOMALY":317.706,"EPHEMERIS_TYPE":0,"CLASSIFICATION_TYPE":"U","NORAD_CAT_ID":66290,"ELEMENT_SET_NO":999,"REV_AT_EPOCH":1595,"BSTAR":0.00095228265,"MEAN_MOTION_DOT":0.0002796,"MEAN_MOTION_DDOT":0},{"OBJECT_NAME":"STARLINK-35800","OBJECT_ID":"2025-247AC","EPOCH":"2026-02-04T06:46:03.114336","MEAN_MOTION":15.30200567,"ECCENTRICITY":0.0001083,"INCLINATION":53.1607,"RA_OF_ASC_NODE":346.2681,"ARG_OF_PERICENTER":69.4065,"MEAN_ANOMALY":290.7052,"EPHEMERIS_TYPE":0,"CLASSIFICATION_TYPE":"U","NORAD_CAT_ID":66291,"ELEMENT_SET_NO":999,"REV_AT_EPOCH":1597,"BSTAR":0.00096270542,"MEAN_MOTION_DOT":0.00028262,"MEAN_MOTION_DDOT":0}]
