STARLINK-35742          
1 66276U 25247M   26035.24832758  .00031493  00000+0  10711-2 0  9993
2 66276  53.1618 346.7756 0001255  70.2800 289.8336 15.30195638 15962
STARLINK-35708          
1 66277U 25247N   26035.23882822  .00028945  00000+0  98571-3 0  9999
2 66277  53.1618 346.7167 0001169  87.5019 272.6115 15.30195921 15966
STARLINK-35713          
1 66278U 25247P   26035.27564840  .00046864  00000+0  15844-2 0  9992
2 66278  53.1609 346.2341 0000834  75.0175 285.0918 15.30200976 15976
STARLINK-35724          
1 66279U 25247Q   26035.27259748  .00049329  00000+0  16665-2 0  9992
2 66279  53.1608 346.9264 0001196  70.0365 290.0765 15.30202646 15911
STARLINK-35726          
1 66280U 25247R   26035.28409299  .00047831  00000+0  16166-2 0  9995
2 66280  53.1608 346.2868 0001110  69.9648 290.1472 15.30202096 15929
STARLINK-35727          
1 66281U 25247S   26035.26837557  .00041024  00000+0  13895-2 0  9990
2 66281  53.1612 346.8995 0001201  87.8292 272.2846 15.30202642 15919
STARLINK-35776          
1 66282U 25247T   26035.13352439  .00052816  00000+0  17801-2 0  9990
2 66282  53.1626 347.4796 0001390 119.6107 240.5033 15.30247039 15891
STARLINK-35774          
1 66283U 25247U   26035.25993314  .00035733  00000+0  12125-2 0  9990
2 66283  53.1620 346.8485 0001044  78.5672 281.5446 15.30206818 15916
STARLINK-35830          
1 66284U 25247V   26035.25571274  .00049219  00000+0  16630-2 0  9997
2 66284  53.1628 346.8171 0001193  94.0367 266.0770 15.30199761 15912
STARLINK-35819          
1 66285U 25247W   26035.25043346  .00041348  00000+0  14003-2 0  9999
2 66285  53.1625 346.7861 0001121 121.6010 238.5101 15.30202075 15913
STARLINK-35783          
1 66286U 25247X   26035.24621608  .00035258  00000+0  11970-2 0  9995
2 66286  53.1614 346.7579 0001222  74.6773 285.4363 15.30197732 15917
STARLINK-34884          
1 66287U 25247Y   26035.24093940  .00044909  00000+0  15194-2 0  9993
2 66287  53.1613 346.7260 0001202  96.0457 264.0681 15.30196684 15910
STARLINK-34896          
1 66288U 25247Z   26035.23671734  .00037208  00000+0  12620-2 0  9991
2 66288  53.1610 346.6982 0001264  59.4584 300.6542 15.30203818 15911
STARLINK-35802          
1 66289U 25247AA  26035.23143895  .00028926  00000+0  98502-3 0  9995
2 66289  53.1605 346.6649 0001153  86.3770 273.7362 15.30197629 15911
STARLINK-35799          
1 66290U 25247AB  26035.16085143  .00027960  00000+0  95228-3 0  9999
2 66290  53.1603 346.9378 0001625  42.4066 317.7060 15.30210158 15959
STARLINK-35800          
1 66291U 25247AC  26035.28198049  .00028262  00000+0  96271-3 0  9998
2 66291  53.1607 346.2681 0001083  69.4065 290.7052 15.30200567 15976
